[{"OBJECT_NAME":"STARLINK-36910","OBJECT_ID":"2026-039V","EPOCH":"2026-03-05T16:00:00.999936","MEAN_MOTION":15.98510785,"ECCENTRICITY":0.0001819,"INCLINATION":42.9981,"RA_OF_ASC_NODE":79.801,"ARG_OF_PERICENTER":272.8606,"MEAN_ANOMALY":149.0202,"EPHEMERIS_TYPE":0,"CLASSIFICATION_TYPE":"U","NORAD_CAT_ID":68005,"ELEMENT_SET_NO":999,"REV_AT_EPOCH":223,"BSTAR":-0.0030399,"MEAN_MOTION_DOT":-0.01482872,"MEAN_MOTION_DDOT":0.00066355},{"OBJECT_NAME":"STARLINK-36889","OBJECT_ID":"2026-039W","EPOCH":"2026-03-05T16:00:00.999936","MEAN_MOTION":15.98754747,"ECCENTRICITY":0.0001815,"INCLINATION":42.998,"RA_OF_ASC_NODE":79.7928,"ARG_OF_PERICENTER":275.2592,"MEAN_ANOMALY":149.7007,"EPHEMERIS_TYPE":0,"CLASSIFICATION_TYPE":"U","NORAD_CAT_ID":68006,"ELEMENT_SET_NO":999,"REV_AT_EPOCH":223,"BSTAR":-0.0029695,"MEAN_MOTION_DOT":-0.01468742,"MEAN_MOTION_DDOT":0.00065366},{"OBJECT_NAME":"STARLINK-36592","OBJECT_ID":"2026-039X","EPOCH":"2026-03-05T16:00:00.999936","MEAN_MOTION":15.98883217,"ECCENTRICITY":0.0001792,"INCLINATION":42.998,"RA_OF_ASC_NODE":79.7893,"ARG_OF_PERICENTER":273.0445,"MEAN_ANOMALY":153.4885,"EPHEMERIS_TYPE":0,"CLASSIFICATION_TYPE":"U","NORAD_CAT_ID":68007,"ELEMENT_SET_NO":999,"REV_AT_EPOCH":223,"BSTAR":-0.00295,"MEAN_MOTION_DOT":-0.01469756,"MEAN_MOTION_DDOT":0.00065538},{"OBJECT_NAME":"STARLINK-36911","OBJECT_ID":"2026-039Y","EPOCH":"2026-03-05T16:00:00.999936","MEAN_MOTION":15.99013799,"ECCENTRICITY":0.0001864,"INCLINATION":42.9982,"RA_OF_ASC_NODE":79.7851,"ARG_OF_PERICENTER":271.0297,"MEAN_ANOMALY":157.1847,"EPHEMERIS_TYPE":0,"CLASSIFICATION_TYPE":"U","NORAD_CAT_ID":68008,"ELEMENT_SET_NO":999,"REV_AT_EPOCH":223,"BSTAR":-0.0029224,"MEAN_MOTION_DOT":-0.01466866,"MEAN_MOTION_DDOT":0.00065392},{"OBJECT_NAME":"STARLINK-36956","OBJECT_ID":"2026-039Z","EPOCH":"2026-03-05T16:00:00.999936","MEAN_MOTION":15.99140095,"ECCENTRICITY":0.0001664,"INCLINATION":42.998,"RA_OF_ASC_NODE":79.7808,"ARG_OF_PERICENTER":276.2831,"MEAN_ANOMALY":153.5183,"EPHEMERIS_TYPE":0,"CLASSIFICATION_TYPE":"U","NORAD_CAT_ID":68009,"ELEMENT_SET_NO":999,"REV_AT_EPOCH":223,"BSTAR":-0.0028928,"MEAN_MOTION_DOT":-0.01462409,"MEAN_MOTION_DDOT":0.00065115},{"OBJECT_NAME":"STARLINK-36953","OBJECT_ID":"2026-039AA","EPOCH":"2026-03-05T16:00:00.999936","MEAN_MOTION":15.99407069,"ECCENTRICITY":0.000179,"INCLINATION":42.998,"RA_OF_ASC_NODE":79.7717,"ARG_OF_PERICENTER":272.1624,"MEAN_ANOMALY":161.1441,"EPHEMERIS_TYPE":0,"CLASSIFICATION_TYPE":"U","NORAD_CAT_ID":68010,"ELEMENT_SET_NO":999,"REV_AT_EPOCH":223,"BSTAR":-0.0028381,"MEAN_MOTION_DOT":-0.0145683,"MEAN_MOTION_DDOT":0.00064844},{"OBJECT_NAME":"STARLINK-36991","OBJECT_ID":"2026-039AB","EPOCH":"2026-03-05T16:00:00.999936","MEAN_MOTION":15.9954245,"ECCENTRICITY":0.0001805,"INCLINATION":42.9979,"RA_OF_ASC_NODE":79.7676,"ARG_OF_PERICENTER":273.6951,"MEAN_ANOMALY":161.3198,"EPHEMERIS_TYPE":0,"CLASSIFICATION_TYPE":"U","NORAD_CAT_ID":68011,"ELEMENT_SET_NO":999,"REV_AT_EPOCH":223,"BSTAR":-0.002816,"MEAN_MOTION_DOT":-0.0145667,"MEAN_MOTION_DDOT":0.00064925},{"OBJECT_NAME":"STARLINK-36936","OBJECT_ID":"2026-039AC","EPOCH":"2026-03-05T16:00:00.999936","MEAN_MOTION":15.9980402,"ECCENTRICITY":0.0001772,"INCLINATION":42.9979,"RA_OF_ASC_NODE":79.7586,"ARG_OF_PERICENTER":277.3415,"MEAN_ANOMALY":161.0232,"EPHEMERIS_TYPE":0,"CLASSIFICATION_TYPE":"U","NORAD_CAT_ID":68012,"ELEMENT_SET_NO":999,"REV_AT_EPOCH":223,"BSTAR":-0.0027588,"MEAN_MOTION_DOT":-0.01448657,"MEAN_MOTION_DDOT":0.00064451},{"OBJECT_NAME":"STARLINK-36967","OBJECT_ID":"2026-039AD","EPOCH":"2026-03-05T16:00:00.999936","MEAN_MOTION":15.99271424,"ECCENTRICITY":0.0001783,"INCLINATION":42.9979,"RA_OF_ASC_NODE":79.7761,"ARG_OF_PERICENTER":273.4356,"MEAN_ANOMALY":158.0561,"EPHEMERIS_TYPE":0,"CLASSIFICATION_TYPE":"U","NORAD_CAT_ID":68013,"ELEMENT_SET_NO":999,"REV_AT_EPOCH":223,"BSTAR":-0.0028669,"MEAN_MOTION_DOT":-0.01460269,"MEAN_MOTION_DDOT":0.00065031},{"OBJECT_NAME":"STARLINK-36985","OBJECT_ID":"2026-039AE","EPOCH":"2026-03-05T16:00:00.999936","MEAN_MOTION":15.99664817,"ECCENTRICITY":0.0001784,"INCLINATION":42.9979,"RA_OF_ASC_NODE":79.7633,"ARG_OF_PERICENTER":275.9053,"MEAN_ANOMALY":160.7263,"EPHEMERIS_TYPE":0,"CLASSIFICATION_TYPE":"U","NORAD_CAT_ID":68014,"ELEMENT_SET_NO":999,"REV_AT_EPOCH":223,"BSTAR":-0.0027794,"MEAN_MOTION_DOT":-0.01447957,"MEAN_MOTION_DDOT":0.00064297}]
